DMSP 5D-3 F16 (USA 172) 
1 28054U 03048A   26095.59818549  .00000157  00000+0  10554-3 0  9995
2 28054  98.9960 118.9256 0006954   2.2128 107.1177 14.14472944159226
METEOSAT-9 (MSG-2)      
1 28912U 05049B   26095.54003168  .00000127  00000+0  00000+0 0  9997
2 28912   9.1990  54.8663 0000778  50.0692 329.0058  1.00277791  6274
DMSP 5D-3 F17 (USA 191) 
1 29522U 06050A   26095.54874009  .00000228  00000+0  14026-3 0  9997
2 29522  98.7408 103.5992 0008900 262.8642  97.1519 14.14976855  2154
FENGYUN 3A              
1 32958U 08026A   26095.58982478  .00000167  00000+0  99858-4 0  9992
2 32958  98.6833  37.8026 0008425 344.6500  15.4419 14.19555169925100
GOES 14                 
1 35491U 09033A   26095.56720020  .00000046  00000+0  00000+0 0  9999
2 35491   1.5025  83.9206 0001842 298.9090 197.8428  1.00112117  5869
DMSP 5D-3 F18 (USA 210) 
1 35951U 09057A   26095.58545260  .00000326  00000+0  19203-3 0  9999
2 35951  98.9001  76.5319 0012200  96.3659 263.8904 14.14854246849323
EWS-G2 (GOES 15)        
1 36411U 10008A   26095.63113951  .00000024  00000+0  00000+0 0  9999
2 36411   1.0868  84.2725 0003423  18.0388  22.1029  1.00271576 58916
COMS 1                  
1 36744U 10032A   26095.58326816 -.00000341  00000+0  00000+0 0  9998
2 36744   4.6174  76.3641 0001362 327.0612 128.5884  1.00272136 50360
FENGYUN 3B              
1 37214U 10059A   26095.62228727  .00000355  00000+0  20714-3 0  9999
2 37214  98.9704 141.3021 0022703  34.8453 116.4188 14.14826698797167
SUOMI NPP               
1 37849U 11061A   26095.59850316  .00000150  00000+0  92070-4 0  9996
2 37849  98.7904  36.9919 0002058 141.9188 218.2134 14.19501304748147
METEOSAT-10 (MSG-3)     
1 38552U 12035B   26095.24586322 -.00000004  00000+0  00000+0 0  9991
2 38552   4.4996  61.3216 0002412 296.9338 283.8759  1.00273516 50120
METOP-B                 
1 38771U 12049A   26095.54557497  .00000179  00000+0  10173-3 0  9991
2 38771  98.6584 148.4683 0002479 169.0334 191.0898 14.21427972702947
INSAT-3D                
1 39216U 13038B   26095.55667174 -.00000337  00000+0  00000+0 0  9991
2 39216   1.7384  83.4474 0001736 267.6885 172.6079  1.00271580 46359
FENGYUN 3C              
1 39260U 13052A   26095.60289196  .00000165  00000+0  10494-3 0  9996
2 39260  98.4931  72.8335 0013707 229.5629 130.4351 14.15738055648292
METEOR-M 2              
1 40069U 14037A   26095.57288630  .00000162  00000+0  93490-4 0  9992
2 40069  98.5067  73.9056 0004576 244.4187 115.6518 14.21439814609007
HIMAWARI-8              
1 40267U 14060A   26095.53642089 -.00000274  00000+0  00000+0 0  9991
2 40267   0.0168 179.9116 0001017 183.2812 164.4100  1.00273716 42036
FENGYUN 2G              
1 40367U 14090A   26095.63176493 -.00000299  00000+0  00000+0 0  9994
2 40367   5.4562  73.6810 0002657 145.4618 301.5931  1.00282362 41278
