[{"OBJECT_NAME":"DMSP 5D-3 F16 (USA 172)","OBJECT_ID":"2003-048A","EPOCH":"2026-04-05T14:21:23.226336","MEAN_MOTION":14.14472944,"ECCENTRICITY":0.00069543,"INCLINATION":98.996,"RA_OF_ASC_NODE":118.9256,"ARG_OF_PERICENTER":2.2128,"MEAN_ANOMALY":107.1177,"EPHEMERIS_TYPE":0,"CLASSIFICATION_TYPE":"U","NORAD_CAT_ID":28054,"ELEMENT_SET_NO":999,"REV_AT_EPOCH":15922,"BSTAR":0.00010553675,"MEAN_MOTION_DOT":1.57e-6,"MEAN_MOTION_DDOT":0},{"OBJECT_NAME":"METEOSAT-9 (MSG-2)","OBJECT_ID":"2005-049B","EPOCH":"2026-04-05T12:57:38.737152","MEAN_MOTION":1.00277791,"ECCENTRICITY":7.784e-5,"INCLINATION":9.199,"RA_OF_ASC_NODE":54.8663,"ARG_OF_PERICENTER":50.0692,"MEAN_ANOMALY":329.0058,"EPHEMERIS_TYPE":0,"CLASSIFICATION_TYPE":"U","NORAD_CAT_ID":28912,"ELEMENT_SET_NO":999,"REV_AT_EPOCH":627,"BSTAR":0,"MEAN_MOTION_DOT":1.27e-6,"MEAN_MOTION_DDOT":0},{"OBJECT_NAME":"DMSP 5D-3 F17 (USA 191)","OBJECT_ID":"2006-050A","EPOCH":"2026-04-05T13:10:11.143776","MEAN_MOTION":14.14976855,"ECCENTRICITY":0.00089,"INCLINATION":98.7408,"RA_OF_ASC_NODE":103.5992,"ARG_OF_PERICENTER":262.8642,"MEAN_ANOMALY":97.1519,"EPHEMERIS_TYPE":0,"CLASSIFICATION_TYPE":"U","NORAD_CAT_ID":29522,"ELEMENT_SET_NO":999,"REV_AT_EPOCH":215,"BSTAR":0.0001402556,"MEAN_MOTION_DOT":2.28e-6,"MEAN_MOTION_DDOT":0},{"OBJECT_NAME":"FENGYUN 3A","OBJECT_ID":"2008-026A","EPOCH":"2026-04-05T14:09:20.860992","MEAN_MOTION":14.19555169,"ECCENTRICITY":0.00084254,"INCLINATION":98.6833,"RA_OF_ASC_NODE":37.8026,"ARG_OF_PERICENTER":344.65,"MEAN_ANOMALY":15.4419,"EPHEMERIS_TYPE":0,"CLASSIFICATION_TYPE":"U","NORAD_CAT_ID":32958,"ELEMENT_SET_NO":999,"REV_AT_EPOCH":92510,"BSTAR":9.9857726e-5,"MEAN_MOTION_DOT":1.67e-6,"MEAN_MOTION_DDOT":0},{"OBJECT_NAME":"GOES 14","OBJECT_ID":"2009-033A","EPOCH":"2026-04-05T13:36:46.097280","MEAN_MOTION":1.00112117,"ECCENTRICITY":0.00018426,"INCLINATION":1.5025,"RA_OF_ASC_NODE":83.9206,"ARG_OF_PERICENTER":298.909,"MEAN_ANOMALY":197.8428,"EPHEMERIS_TYPE":0,"CLASSIFICATION_TYPE":"U","NORAD_CAT_ID":35491,"ELEMENT_SET_NO":999,"REV_AT_EPOCH":586,"BSTAR":0,"MEAN_MOTION_DOT":4.6e-7,"MEAN_MOTION_DDOT":0},{"OBJECT_NAME":"DMSP 5D-3 F18 (USA 210)","OBJECT_ID":"2009-057A","EPOCH":"2026-04-05T14:03:03.104640","MEAN_MOTION":14.14854246,"ECCENTRICITY":0.00122008,"INCLINATION":98.9001,"RA_OF_ASC_NODE":76.5319,"ARG_OF_PERICENTER":96.3659,"MEAN_ANOMALY":263.8904,"EPHEMERIS_TYPE":0,"CLASSIFICATION_TYPE":"U","NORAD_CAT_ID":35951,"ELEMENT_SET_NO":999,"REV_AT_EPOCH":84932,"BSTAR":0.00019203006,"MEAN_MOTION_DOT":3.26e-6,"MEAN_MOTION_DDOT":0},{"OBJECT_NAME":"EWS-G2 (GOES 15)","OBJECT_ID":"2010-008A","EPOCH":"2026-04-05T15:08:50.453664","MEAN_MOTION":1.00271576,"ECCENTRICITY":0.00034236,"INCLINATION":1.0868,"RA_OF_ASC_NODE":84.2725,"ARG_OF_PERICENTER":18.0388,"MEAN_ANOMALY":22.1029,"EPHEMERIS_TYPE":0,"CLASSIFICATION_TYPE":"U","NORAD_CAT_ID":36411,"ELEMENT_SET_NO":999,"REV_AT_EPOCH":5891,"BSTAR":0,"MEAN_MOTION_DOT":2.4e-7,"MEAN_MOTION_DDOT":0},{"OBJECT_NAME":"COMS 1","OBJECT_ID":"2010-032A","EPOCH":"2026-04-05T13:59:54.369024","MEAN_MOTION":1.00272136,"ECCENTRICITY":0.00013623,"INCLINATION":4.6174,"RA_OF_ASC_NODE":76.3641,"ARG_OF_PERICENTER":327.0612,"MEAN_ANOMALY":128.5884,"EPHEMERIS_TYPE":0,"CLASSIFICATION_TYPE":"U","NORAD_CAT_ID":36744,"ELEMENT_SET_NO":999,"REV_AT_EPOCH":5036,"BSTAR":0,"MEAN_MOTION_DOT":-3.41e-6,"MEAN_MOTION_DDOT":0},{"OBJECT_NAME":"FENGYUN 3B","OBJECT_ID":"2010-059A","EPOCH":"2026-04-05T14:56:05.620128","MEAN_MOTION":14.14826698,"ECCENTRICITY":0.00227033,"INCLINATION":98.9704,"RA_OF_ASC_NODE":141.3021,"ARG_OF_PERICENTER":34.8453,"MEAN_ANOMALY":116.4188,"EPHEMERIS_TYPE":0,"CLASSIFICATION_TYPE":"U","NORAD_CAT_ID":37214,"ELEMENT_SET_NO":999,"REV_AT_EPOCH":79716,"BSTAR":0.00020713712,"MEAN_MOTION_DOT":3.55e-6,"MEAN_MOTION_DDOT":0},{"OBJECT_NAME":"SUOMI NPP","OBJECT_ID":"2011-061A","EPOCH":"2026-04-05T14:21:50.673024","MEAN_MOTION":14.19501304,"ECCENTRICITY":0.00020586,"INCLINATION":98.7904,"RA_OF_ASC_NODE":36.9919,"ARG_OF_PERICENTER":141.9188,"MEAN_ANOMALY":218.2134,"EPHEMERIS_TYPE":0,"CLASSIFICATION_TYPE":"U","NORAD_CAT_ID":37849,"ELEMENT_SET_NO":999,"REV_AT_EPOCH":74814,"BSTAR":9.2069686e-5,"MEAN_MOTION_DOT":1.5e-6,"MEAN_MOTION_DDOT":0},{"OBJECT_NAME":"METEOSAT-10 (MSG-3)","OBJECT_ID":"2012-035B","EPOCH":"2026-04-05T05:54:02.582208","MEAN_MOTION":1.00273516,"ECCENTRICITY":0.0002412,"INCLINATION":4.4996,"RA_OF_ASC_NODE":61.3216,"ARG_OF_PERICENTER":296.9338,"MEAN_ANOMALY":283.8759,"EPHEMERIS_TYPE":0,"CLASSIFICATION_TYPE":"U","NORAD_CAT_ID":38552,"ELEMENT_SET_NO":999,"REV_AT_EPOCH":5012,"BSTAR":0,"MEAN_MOTION_DOT":-4.0e-8,"MEAN_MOTION_DDOT":0},{"OBJECT_NAME":"METOP-B","OBJECT_ID":"2012-049A","EPOCH":"2026-04-05T13:05:37.677408","MEAN_MOTION":14.21427972,"ECCENTRICITY":0.00024798,"INCLINATION":98.6584,"RA_OF_ASC_NODE":148.4683,"ARG_OF_PERICENTER":169.0334,"MEAN_ANOMALY":191.0898,"EPHEMERIS_TYPE":0,"CLASSIFICATION_TYPE":"U","NORAD_CAT_ID":38771,"ELEMENT_SET_NO":999,"REV_AT_EPOCH":70294,"BSTAR":0.00010172687,"MEAN_MOTION_DOT":1.79e-6,"MEAN_MOTION_DDOT":0},{"OBJECT_NAME":"INSAT-3D","OBJECT_ID":"2013-038B","EPOCH":"2026-04-05T13:21:36.438336","MEAN_MOTION":1.0027158,"ECCENTRICITY":0.00017365,"INCLINATION":1.7384,"RA_OF_ASC_NODE":83.4474,"ARG_OF_PERICENTER":267.6885,"MEAN_ANOMALY":172.6079,"EPHEMERIS_TYPE":0,"CLASSIFICATION_TYPE":"U","NORAD_CAT_ID":39216,"ELEMENT_SET_NO":999,"REV_AT_EPOCH":4635,"BSTAR":0,"MEAN_MOTION_DOT":-3.37e-6,"MEAN_MOTION_DDOT":0},{"OBJECT_NAME":"FENGYUN 3C","OBJECT_ID":"2013-052A","EPOCH":"2026-04-05T14:28:09.865344","MEAN_MOTION":14.15738055,"ECCENTRICITY":0.00137073,"INCLINATION":98.4931,"RA_OF_ASC_NODE":72.8335,"ARG_OF_PERICENTER":229.5629,"MEAN_ANOMALY":130.4351,"EPHEMERIS_TYPE":0,"CLASSIFICATION_TYPE":"U","NORAD_CAT_ID":39260,"ELEMENT_SET_NO":999,"REV_AT_EPOCH":64829,"BSTAR":0.00010493707,"MEAN_MOTION_DOT":1.65e-6,"MEAN_MOTION_DDOT":0},{"OBJECT_NAME":"METEOR-M 2","OBJECT_ID":"2014-037A","EPOCH":"2026-04-05T13:44:57.376320","MEAN_MOTION":14.21439814,"ECCENTRICITY":0.00045768,"INCLINATION":98.5067,"RA_OF_ASC_NODE":73.9056,"ARG_OF_PERICENTER":244.4187,"MEAN_ANOMALY":115.6518,"EPHEMERIS_TYPE":0,"CLASSIFICATION_TYPE":"U","NORAD_CAT_ID":40069,"ELEMENT_SET_NO":999,"REV_AT_EPOCH":60900,"BSTAR":9.3490494e-5,"MEAN_MOTION_DOT":1.62e-6,"MEAN_MOTION_DDOT":0},{"OBJECT_NAME":"HIMAWARI-8","OBJECT_ID":"2014-060A","EPOCH":"2026-04-05T12:52:26.764896","MEAN_MOTION":1.00273716,"ECCENTRICITY":0.00010176,"INCLINATION":0.0168,"RA_OF_ASC_NODE":179.9116,"ARG_OF_PERICENTER":183.2812,"MEAN_ANOMALY":164.41,"EPHEMERIS_TYPE":0,"CLASSIFICATION_TYPE":"U","NORAD_CAT_ID":40267,"ELEMENT_SET_NO":999,"REV_AT_EPOCH":4203,"BSTAR":0,"MEAN_MOTION_DOT":-2.74e-6,"MEAN_MOTION_DDOT":0},{"OBJECT_NAME":"FENGYUN 2G","OBJECT_ID":"2014-090A","EPOCH":"2026-04-05T15:09:44.489952","MEAN_MOTION":1.00282362,"ECCENTRICITY":0.00026573,"INCLINATION":5.4562,"RA_OF_ASC_NODE":73.681,"ARG_OF_PERICENTER":145.4618,"MEAN_ANOMALY":301.5931,"EPHEMERIS_TYPE":0,"CLASSIFICATION_TYPE":"U","NORAD_CAT_ID":40367,"ELEMENT_SET_NO":999,"REV_AT_EPOCH":4127,"BSTAR":0,"MEAN_MOTION_DOT":-2.99e-6,"MEAN_MOTION_DDOT":0}]
